OBJECT_NAME,OBJECT_ID,EPOCH,MEAN_MOTION,ECCENTRICITY,INCLINATION,RA_OF_ASC_NODE,ARG_OF_PERICENTER,MEAN_ANOMALY,EPHEMERIS_TYPE,CLASSIFICATION_TYPE,NORAD_CAT_ID,ELEMENT_SET_NO,REV_AT_EPOCH,BSTAR,MEAN_MOTION_DOT,MEAN_MOTION_DDOT
MONITOR-4 (RS57S),2023-091S,2026-06-27T04:43:20.936640,15.28122656,.00126991,97.5080,241.6885,69.9430,290.3175,0,U,57182,999,16582,.42471827E-3,.11602E-3,0
MONITOR-2 (RS39S),2023-091U,2026-06-27T06:14:31.906464,15.19000516,.00126747,97.5073,236.4779,80.6740,279.5926,0,U,57184,999,16548,.25690661E-3,.5318E-4,0
SVYATOBOR 1 (RS60S),2023-091X,2026-06-27T06:49:04.922400,15.26781761,.00104534,97.5092,242.1573,63.9034,296.3279,0,U,57187,999,16585,.36556341E-3,.9566E-4,0
HORS 1,2023-091Y,2026-06-27T06:27:13.794624,15.26892468,.00099017,97.5069,241.9030,64.0083,296.2174,0,U,57188,999,16585,.38370518E-3,.10078E-3,0
VIZARD-METEO (RS38S),2023-091Z,2026-06-27T05:51:37.586592,15.36338341,.00074909,97.5095,247.9321,46.4216,313.7648,0,U,57189,999,16623,.51956793E-3,.18365E-3,0
SITRO-AIS 6 (CHIRKIN),2023-091AC,2026-06-27T06:40:10.469280,15.26121768,.00127864,97.5069,241.3393,75.3578,284.9077,0,U,57192,999,16582,.41030446E-3,.10543E-3,0
SITRO-AIS 8 (ANOKHIN),2023-091AD,2026-06-27T06:35:46.342752,15.32401854,.00112938,97.5059,243.9008,68.5343,291.7102,0,U,57193,999,16599,.5112858E-3,.15962E-3,0
SITRO-AIS 7 (FARTUSHNIY),2023-091AE,2026-06-27T06:47:41.787456,15.25805329,.00127055,97.5067,241.1642,76.2550,284.0102,0,U,57194,999,16581,.3937108E-3,.10017E-3,0
AVION KALUGA 650,2023-091AF,2026-06-27T05:33:43.968960,15.20456296,.00118112,97.5091,237.7675,79.1101,281.1462,0,U,57195,999,16555,.29379364E-3,.6354E-4,0
HORS 2,2023-091AG,2026-06-27T06:55:00.330528,15.32139705,.00086716,97.5091,245.4563,57.3165,302.8912,0,U,57196,999,16607,.47546417E-3,.14703E-3,0
A-SEANSAT-PG1,2023-091AH,2026-06-27T07:07:27.314688,15.37300454,.00075125,97.5084,248.0953,54.0464,306.1476,0,U,57197,999,16626,.52362388E-3,.19094E-3,0
SITRO-AIS 10 (BURDAEV),2023-091AK,2026-06-27T06:19:38.681760,15.38982966,.00066812,97.5085,249.0484,48.7033,311.4786,0,U,57199,999,16631,.53515175E-3,.20613E-3,0
SITRO-AIS 9 (SHCHUKIN),2023-091AM,2026-06-27T07:02:20.143680,15.38483272,.00069193,97.5082,248.8007,48.9287,311.2555,0,U,57201,999,16630,.56319302E-3,.2135E-3,0
UTMN 2 (RS27S),2023-091AP,2026-06-27T05:58:40.109376,15.32291451,.00086096,97.5091,245.6103,53.1258,307.0771,0,U,57203,999,16608,.4577459E-3,.14218E-3,0
SITRO-AIS 12 (SMIRENNIY),2023-091AQ,2026-06-27T06:46:03.412416,15.38777652,.00064205,97.5095,249.2626,43.5734,316.6017,0,U,57204,999,16632,.57627417E-3,.22058E-3,0
SITRO-AIS 11 (SHEFFER),2023-091AU,2026-06-27T07:01:20.150976,15.39206701,.00063008,97.5094,249.5264,43.3434,316.8306,0,U,57208,999,16634,.55317786E-3,.21467E-3,0
H2SAT (HEINRICH HERTZ),2023-093A,2026-06-25T07:28:10.234848,1.00269986,.0000848,0.0482,107.4304,17.0766,261.6799,0,U,57213,999,1099,0,.11E-6,0
KUZGTU 1 (RS47S),2023-091AV,2026-06-27T05:41:17.894688,15.30085780,.0011853,97.5067,242.8200,66.8260,293.4228,0,U,57217,999,16591,.47320788E-3,.13739E-3,0
QIANKUN-1,2023-103B,2026-06-27T03:06:45.729216,16.07664039,.00350219,96.1495,222.2784,145.4250,214.9323,0,U,57422,999,16889,.37317592E-4,.32053E-3,.2105998E-5
FENGYUN 3F,2023-111A,2026-06-27T06:17:29.329728,14.19940692,.00015475,98.6834,248.0831,85.9531,274.1822,0,U,57490,999,15029,.42153785E-4,.46E-6,0
HJ-2F,2023-116A,2026-06-27T07:24:50.548032,15.22460059,.00087125,97.3839,183.3514,20.6177,339.5409,0,U,57519,999,16029,.36461845E-3,.838E-4,0
XRISM,2023-137A,2026-06-27T00:34:03.795456,15.12547205,.00078088,31.0027,295.8825,62.6884,297.4549,0,U,57800,999,15435,.27222211E-3,.4965E-4,0
METEOR-M2 4,2024-039A,2026-06-27T07:30:15.855264,14.22430485,.00078242,98.7014,137.4836,133.8346,226.3480,0,U,59051,999,12070,.16348667E-4,-.7E-7,0
GRBBETA,2024-128C,2026-06-27T07:23:17.619648,15.06697529,.00393782,61.9879,180.7560,136.7389,223.6809,0,U,60237,999,10779,.24774776E-3,.3542E-4,0
TRANSPORTER-11 OBJECT A,2024-149A,2026-06-27T04:56:21.792192,15.33065022,.00037594,97.3736,258.1046,162.5073,197.6299,0,U,60468,999,10359,.28804845E-3,.9125E-4,0
WARATAH SEED-1,2024-149B,2026-06-27T05:00:07.904448,15.36188545,.00023412,97.3694,258.7931,155.1819,204.9538,0,U,60469,999,10365,.39599838E-3,.13894E-3,0
PHISAT 2,2024-149C,2026-06-27T04:15:04.466592,15.31191002,.0002029,97.3760,257.3380,154.2473,205.8870,0,U,60470,999,10352,.25333402E-3,.7556E-4,0
LEMUR-2-TOMATOKECHUP,2024-149D,2026-06-27T04:54:04.017024,15.36233630,.00023008,97.3805,260.2770,156.5261,203.6088,0,U,60471,999,10370,.31842884E-3,.11169E-3,0
CONNECTA IOT-1,2024-149E,2026-06-27T05:02:36.614400,15.23613898,.00011242,97.3762,254.3322,185.2528,174.8697,0,U,60472,999,10332,.19077598E-3,.4498E-4,0
